[{"OBJECT_NAME":"SL-16 R/B","OBJECT_ID":"1993-059B","EPOCH":"2026-04-09T19:33:29.541600","MEAN_MOTION":14.17237475,"ECCENTRICITY":0.0016698,"INCLINATION":70.9901,"RA_OF_ASC_NODE":305.4915,"ARG_OF_PERICENTER":170.1247,"MEAN_ANOMALY":190.0208,"EPHEMERIS_TYPE":0,"CLASSIFICATION_TYPE":"U","NORAD_CAT_ID":22803,"ELEMENT_SET_NO":999,"REV_AT_EPOCH":68394,"BSTAR":0.00014889,"MEAN_MOTION_DOT":2.53e-6,"MEAN_MOTION_DDOT":0},{"OBJECT_NAME":"ARIANE 40 R/B","OBJECT_ID":"1993-061H","EPOCH":"2026-04-09T18:33:06.246144","MEAN_MOTION":14.32878711,"ECCENTRICITY":0.0010702,"INCLINATION":98.4863,"RA_OF_ASC_NODE":168.0386,"ARG_OF_PERICENTER":185.913,"MEAN_ANOMALY":174.1929,"EPHEMERIS_TYPE":0,"CLASSIFICATION_TYPE":"U","NORAD_CAT_ID":22830,"ELEMENT_SET_NO":999,"REV_AT_EPOCH":69855,"BSTAR":8.8175e-5,"MEAN_MOTION_DOT":1.98e-6,"MEAN_MOTION_DDOT":0},{"OBJECT_NAME":"COSMOS 2278","OBJECT_ID":"1994-023A","EPOCH":"2026-04-09T10:23:51.750240","MEAN_MOTION":14.14376306,"ECCENTRICITY":0.00095288,"INCLINATION":71.0502,"RA_OF_ASC_NODE":110.777,"ARG_OF_PERICENTER":329.039,"MEAN_ANOMALY":31.0169,"EPHEMERIS_TYPE":0,"CLASSIFICATION_TYPE":"U","NORAD_CAT_ID":23087,"ELEMENT_SET_NO":999,"REV_AT_EPOCH":64915,"BSTAR":0.00012108049,"MEAN_MOTION_DOT":1.85e-6,"MEAN_MOTION_DDOT":0},{"OBJECT_NAME":"SL-16 R/B","OBJECT_ID":"1994-023B","EPOCH":"2026-04-09T19:39:45.878400","MEAN_MOTION":14.15020435,"ECCENTRICITY":0.0005652,"INCLINATION":71.0032,"RA_OF_ASC_NODE":5.5127,"ARG_OF_PERICENTER":259.0736,"MEAN_ANOMALY":100.9751,"EPHEMERIS_TYPE":0,"CLASSIFICATION_TYPE":"U","NORAD_CAT_ID":23088,"ELEMENT_SET_NO":999,"REV_AT_EPOCH":65049,"BSTAR":-1.9184e-5,"MEAN_MOTION_DOT":-8.5e-7,"MEAN_MOTION_DDOT":0},{"OBJECT_NAME":"SL-16 R/B","OBJECT_ID":"1994-074B","EPOCH":"2026-04-09T00:29:30.329952","MEAN_MOTION":14.79444126,"ECCENTRICITY":0.00079181,"INCLINATION":97.7062,"RA_OF_ASC_NODE":128.6036,"ARG_OF_PERICENTER":117.1969,"MEAN_ANOMALY":272.8631,"EPHEMERIS_TYPE":0,"CLASSIFICATION_TYPE":"U","NORAD_CAT_ID":23343,"ELEMENT_SET_NO":999,"REV_AT_EPOCH":69173,"BSTAR":5.690753e-5,"MEAN_MOTION_DOT":3.76e-6,"MEAN_MOTION_DDOT":0},{"OBJECT_NAME":"SL-16 R/B","OBJECT_ID":"1994-077B","EPOCH":"2026-04-09T18:55:48.553824","MEAN_MOTION":14.15566771,"ECCENTRICITY":0.0001317,"INCLINATION":70.9813,"RA_OF_ASC_NODE":287.0623,"ARG_OF_PERICENTER":176.5866,"MEAN_ANOMALY":183.5266,"EPHEMERIS_TYPE":0,"CLASSIFICATION_TYPE":"U","NORAD_CAT_ID":23405,"ELEMENT_SET_NO":999,"REV_AT_EPOCH":62063,"BSTAR":-1.674e-5,"MEAN_MOTION_DOT":-8.1e-7,"MEAN_MOTION_DDOT":0},{"OBJECT_NAME":"ARIANE 40+ R/B","OBJECT_ID":"1995-021B","EPOCH":"2026-04-09T19:43:19.981920","MEAN_MOTION":14.39796154,"ECCENTRICITY":0.0007617,"INCLINATION":98.4446,"RA_OF_ASC_NODE":170.8743,"ARG_OF_PERICENTER":56.1864,"MEAN_ANOMALY":57.5283,"EPHEMERIS_TYPE":0,"CLASSIFICATION_TYPE":"U","NORAD_CAT_ID":23561,"ELEMENT_SET_NO":999,"REV_AT_EPOCH":62372,"BSTAR":9.6418e-5,"MEAN_MOTION_DOT":2.59e-6,"MEAN_MOTION_DDOT":0},{"OBJECT_NAME":"SL-16 R/B","OBJECT_ID":"1995-058B","EPOCH":"2026-04-09T10:39:16.257888","MEAN_MOTION":14.15499157,"ECCENTRICITY":0.0010465,"INCLINATION":71.0186,"RA_OF_ASC_NODE":115.6884,"ARG_OF_PERICENTER":69.551,"MEAN_ANOMALY":290.6736,"EPHEMERIS_TYPE":0,"CLASSIFICATION_TYPE":"U","NORAD_CAT_ID":23705,"ELEMENT_SET_NO":999,"REV_AT_EPOCH":57220,"BSTAR":0.00013515,"MEAN_MOTION_DOT":2.17e-6,"MEAN_MOTION_DDOT":0},{"OBJECT_NAME":"SL-16 R/B","OBJECT_ID":"1996-051B","EPOCH":"2026-04-09T11:27:25.950816","MEAN_MOTION":14.12424324,"ECCENTRICITY":0.0012829,"INCLINATION":70.7579,"RA_OF_ASC_NODE":110.0735,"ARG_OF_PERICENTER":96.6004,"MEAN_ANOMALY":263.6576,"EPHEMERIS_TYPE":0,"CLASSIFICATION_TYPE":"U","NORAD_CAT_ID":24298,"ELEMENT_SET_NO":999,"REV_AT_EPOCH":52599,"BSTAR":5.6538e-5,"MEAN_MOTION_DOT":5.5e-7,"MEAN_MOTION_DDOT":0},{"OBJECT_NAME":"ORBVIEW 2 (SEASTAR)","OBJECT_ID":"1997-037A","EPOCH":"2026-04-09T10:26:29.281632","MEAN_MOTION":14.35517832,"ECCENTRICITY":0.00017936,"INCLINATION":98.8621,"RA_OF_ASC_NODE":264.5702,"ARG_OF_PERICENTER":359.3549,"MEAN_ANOMALY":0.7633,"EPHEMERIS_TYPE":0,"CLASSIFICATION_TYPE":"U","NORAD_CAT_ID":24883,"ELEMENT_SET_NO":999,"REV_AT_EPOCH":51288,"BSTAR":0.00011333795,"MEAN_MOTION_DOT":2.79e-6,"MEAN_MOTION_DDOT":0},{"OBJECT_NAME":"SL-16 R/B","OBJECT_ID":"1998-043G","EPOCH":"2026-04-09T19:31:59.016000","MEAN_MOTION":14.26057355,"ECCENTRICITY":0.0008802,"INCLINATION":98.8302,"RA_OF_ASC_NODE":53.4081,"ARG_OF_PERICENTER":286.4471,"MEAN_ANOMALY":73.5741,"EPHEMERIS_TYPE":0,"CLASSIFICATION_TYPE":"U","NORAD_CAT_ID":25400,"ELEMENT_SET_NO":999,"REV_AT_EPOCH":44342,"BSTAR":4.4331e-5,"MEAN_MOTION_DOT":6.0e-7,"MEAN_MOTION_DDOT":0},{"OBJECT_NAME":"SL-16 R/B","OBJECT_ID":"1998-045B","EPOCH":"2026-04-09T10:33:14.839776","MEAN_MOTION":14.16195928,"ECCENTRICITY":0.00085028,"INCLINATION":71.0087,"RA_OF_ASC_NODE":116.9085,"ARG_OF_PERICENTER":323.982,"MEAN_ANOMALY":36.0729,"EPHEMERIS_TYPE":0,"CLASSIFICATION_TYPE":"U","NORAD_CAT_ID":25407,"ELEMENT_SET_NO":999,"REV_AT_EPOCH":43145,"BSTAR":0.00016557271,"MEAN_MOTION_DOT":2.8e-6,"MEAN_MOTION_DDOT":0},{"OBJECT_NAME":"ISS (ZARYA)","OBJECT_ID":"1998-067A","EPOCH":"2026-04-09T19:29:00.944736","MEAN_MOTION":15.48850892,"ECCENTRICITY":0.0006426,"INCLINATION":51.6329,"RA_OF_ASC_NODE":278.4805,"ARG_OF_PERICENTER":293.1753,"MEAN_ANOMALY":66.8558,"EPHEMERIS_TYPE":0,"CLASSIFICATION_TYPE":"U","NORAD_CAT_ID":25544,"ELEMENT_SET_NO":999,"REV_AT_EPOCH":56115,"BSTAR":0.00012437,"MEAN_MOTION_DOT":6.374e-5,"MEAN_MOTION_DDOT":0},{"OBJECT_NAME":"CZ-4B R/B","OBJECT_ID":"1999-025C","EPOCH":"2026-04-09T09:57:09.057888","MEAN_MOTION":14.18271757,"ECCENTRICITY":0.0036006,"INCLINATION":98.6563,"RA_OF_ASC_NODE":142.9593,"ARG_OF_PERICENTER":256.0281,"MEAN_ANOMALY":115.1056,"EPHEMERIS_TYPE":0,"CLASSIFICATION_TYPE":"U","NORAD_CAT_ID":25732,"ELEMENT_SET_NO":999,"REV_AT_EPOCH":39252,"BSTAR":3.7801478e-5,"MEAN_MOTION_DOT":3.5e-7,"MEAN_MOTION_DDOT":0},{"OBJECT_NAME":"OKEAN-O","OBJECT_ID":"1999-039A","EPOCH":"2026-04-09T09:45:16.373664","MEAN_MOTION":14.80387309,"ECCENTRICITY":0.00010014,"INCLINATION":97.9381,"RA_OF_ASC_NODE":158.9759,"ARG_OF_PERICENTER":111.8438,"MEAN_ANOMALY":248.2881,"EPHEMERIS_TYPE":0,"CLASSIFICATION_TYPE":"U","NORAD_CAT_ID":25860,"ELEMENT_SET_NO":999,"REV_AT_EPOCH":43893,"BSTAR":8.9872826e-5,"MEAN_MOTION_DOT":6.34e-6,"MEAN_MOTION_DDOT":0},{"OBJECT_NAME":"SL-16 R/B","OBJECT_ID":"1999-039B","EPOCH":"2026-04-09T18:18:12.567744","MEAN_MOTION":14.81777028,"ECCENTRICITY":0.0015465,"INCLINATION":97.9902,"RA_OF_ASC_NODE":158.8024,"ARG_OF_PERICENTER":152.095,"MEAN_ANOMALY":208.1095,"EPHEMERIS_TYPE":0,"CLASSIFICATION_TYPE":"U","NORAD_CAT_ID":25861,"ELEMENT_SET_NO":999,"REV_AT_EPOCH":44146,"BSTAR":7.8034e-5,"MEAN_MOTION_DOT":5.63e-6,"MEAN_MOTION_DDOT":0},{"OBJECT_NAME":"DELTA 2 R/B","OBJECT_ID":"1999-041E","EPOCH":"2026-04-09T12:26:38.214240","MEAN_MOTION":14.11909085,"ECCENTRICITY":0.05026158,"INCLINATION":51.7606,"RA_OF_ASC_NODE":178.1246,"ARG_OF_PERICENTER":79.341,"MEAN_ANOMALY":286.3695,"EPHEMERIS_TYPE":0,"CLASSIFICATION_TYPE":"U","NORAD_CAT_ID":25876,"ELEMENT_SET_NO":999,"REV_AT_EPOCH":36738,"BSTAR":0.00016707729,"MEAN_MOTION_DOT":7.92e-6,"MEAN_MOTION_DDOT":0}]
