SL-16 R/B               
1 22803U 93059B   26099.81492525  .00000253  00000+0  14889-3 0  9995
2 22803  70.9901 305.4915 0016698 170.1247 190.0208 14.17237475683943
ARIANE 40 R/B           
1 22830U 93061H   26099.77298896  .00000198  00000+0  88175-4 0  9996
2 22830  98.4863 168.0386 0010702 185.9130 174.1929 14.32878711698552
COSMOS 2278             
1 23087U 94023A   26099.43323785  .00000185  00000+0  12108-3 0  9997
2 23087  71.0502 110.7770 0009528 329.0390  31.0169 14.14376306649150
SL-16 R/B               
1 23088U 94023B   26099.81928100 -.00000085  00000+0 -19184-4 0  9995
2 23088  71.0032   5.5127 0005652 259.0736 100.9751 14.15020435650498
SL-16 R/B               
1 23343U 94074B   26099.02048993  .00000376  00000+0  56908-4 0  9997
2 23343  97.7062 128.6036 0007918 117.1969 272.8631 14.79444126691730
SL-16 R/B               
1 23405U 94077B   26099.78875641 -.00000081  00000+0 -16740-4 0  9995
2 23405  70.9813 287.0623 0001317 176.5866 183.5266 14.15566771620634
ARIANE 40+ R/B          
1 23561U 95021B   26099.82175905  .00000259  00000+0  96418-4 0  9994
2 23561  98.4446 170.8743 0007617  56.1864  57.5283 14.39796154623724
SL-16 R/B               
1 23705U 95058B   26099.44393817  .00000217  00000+0  13515-3 0  9996
2 23705  71.0186 115.6884 0010465  69.5510 290.6736 14.15499157572202
SL-16 R/B               
1 24298U 96051B   26099.47738369  .00000055  00000+0  56538-4 0  9999
2 24298  70.7579 110.0735 0012829  96.6004 263.6576 14.12424324525998
ORBVIEW 2 (SEASTAR)     
1 24883U 97037A   26099.43506113  .00000279  00000+0  11334-3 0  9992
2 24883  98.8621 264.5702 0001793 359.3549   0.7633 14.35517832512887
SL-16 R/B               
1 25400U 98043G   26099.81387750  .00000060  00000+0  44331-4 0  9994
2 25400  98.8302  53.4081 0008802 286.4471  73.5741 14.26057355443426
SL-16 R/B               
1 25407U 98045B   26099.43975509  .00000280  00000+0  16557-3 0  9998
2 25407  71.0087 116.9085 0008502 323.9820  36.0729 14.16195928431455
ISS (ZARYA)             
1 25544U 98067A   26099.81181649  .00006374  00000+0  12437-3 0  9993
2 25544  51.6329 278.4805 0006426 293.1753  66.8558 15.48850892561156
CZ-4B R/B               
1 25732U 99025C   26099.41468817  .00000035  00000+0  37801-4 0  9999
2 25732  98.6563 142.9593 0036006 256.0281 115.1056 14.18271757392523
OKEAN-O                 
1 25860U 99039A   26099.40643951  .00000634  00000+0  89873-4 0  9990
2 25860  97.9381 158.9759 0001001 111.8438 248.2881 14.80387309438935
SL-16 R/B               
1 25861U 99039B   26099.76264546  .00000563  00000+0  78034-4 0  9997
2 25861  97.9902 158.8024 0015465 152.0950 208.1095 14.81777028441460
DELTA 2 R/B             
1 25876U 99041E   26099.51849785  .00000792  00000+0  16708-3 0  9996
2 25876  51.7606 178.1246 0502615  79.3410 286.3695 14.11909085367381
